start=new Date('2022-04-12T00:00:00.000Z').valueOf();
sats=[{"EPOCH":"2022-04-11T22:00:00.999936","MEAN_MOTION":"15.47776918","OBJECT_ID":"2022-017Q","ARG_OF_PERICENTER":"51.3374","MEAN_ELEMENT_THEORY":"SGP4","PERIOD":"93.037","TLE_LINE2":"2 51782  53.2175 282.2016 0001440  51.3374 254.3171 15.47776918  3675","APOAPSIS":"424.212","ECCENTRICITY":"0.00014400","LAUNCH_DATE":"2022-02-25","OBJECT_NAME":"STARLINK-3616","RCS_SIZE":"LARGE","REV_AT_EPOCH":"367","MEAN_MOTION_DOT":"-0.00718950","CLASSIFICATION_TYPE":"U","SITE":"AFWTR","REF_FRAME":"TEME","TLE_LINE1":"1 51782U 22017Q   22101.91667824 -.00718950  00000-0 -14732-1 0  9994","GP_ID":"201019882","CENTER_NAME":"EARTH","COUNTRY_CODE":"US","INCLINATION":"53.2175","MEAN_ANOMALY":"254.3171","FILE":"3397723","DECAY_DATE":null,"SEMIMAJOR_AXIS":"6801.368","PERIAPSIS":"422.253","MEAN_MOTION_DDOT":"0.0000000000000","NORAD_CAT_ID":"51782","ELEMENT_SET_NO":"999","TIME_SYSTEM":"UTC","OBJECT_TYPE":"PAYLOAD","EPHEMERIS_TYPE":"0","BSTAR":"-0.01473200000000","RA_OF_ASC_NODE":"282.2016"},{"RA_OF_ASC_NODE":"279.5556","ELEMENT_SET_NO":"999","TIME_SYSTEM":"UTC","MEAN_MOTION_DDOT":"0.0000000000000","NORAD_CAT_ID":"51783","EPHEMERIS_TYPE":"0","OBJECT_TYPE":"PAYLOAD","BSTAR":"-0.00000600990000","MEAN_ANOMALY":"151.4130","INCLINATION":"53.2132","COUNTRY_CODE":"US","DECAY_DATE":null,"FILE":"3397723","PERIAPSIS":"349.007","SEMIMAJOR_AXIS":"6728.029","REF_FRAME":"TEME","SITE":"AFWTR","TLE_LINE1":"1 51783U 22017R   22101.91667824 -.00001461  00000-0 -60099-5 0  9998","CENTER_NAME":"EARTH","GP_ID":"201020465","CLASSIFICATION_TYPE":"U","MEAN_MOTION_DOT":"-0.00001461","LAUNCH_DATE":"2022-02-25","RCS_SIZE":"LARGE","OBJECT_NAME":"STARLINK-3628","REV_AT_EPOCH":"369","MEAN_MOTION":"15.73152945","MEAN_ELEMENT_THEORY":"SGP4","PERIOD":"91.536","OBJECT_ID":"2022-017R","ARG_OF_PERICENTER":"62.2247","TLE_LINE2":"2 51783  53.2132 279.5556 0001319  62.2247 151.4130 15.73152945  3693","ECCENTRICITY":"0.00013190","APOAPSIS":"350.782","EPOCH":"2022-04-11T22:00:00.999936"},{"LAUNCH_DATE":"2022-02-25","REV_AT_EPOCH":"367","RCS_SIZE":"LARGE","OBJECT_NAME":"STARLINK-3632","CLASSIFICATION_TYPE":"U","MEAN_MOTION_DOT":"-0.00719258","EPOCH":"2022-04-11T22:00:00.999936","PERIOD":"93.029","MEAN_ELEMENT_THEORY":"SGP4","ARG_OF_PERICENTER":"52.6256","OBJECT_ID":"2022-017S","MEAN_MOTION":"15.47904916","ECCENTRICITY":"0.00013890","APOAPSIS":"423.803","TLE_LINE2":"2 51784  53.2175 282.2012 0001389  52.6256 261.2975 15.47904916  3678","TIME_SYSTEM":"UTC","ELEMENT_SET_NO":"999","MEAN_MOTION_DDOT":"0.0000000000000","NORAD_CAT_ID":"51784","BSTAR":"-0.01467300000000","EPHEMERIS_TYPE":"0","OBJECT_TYPE":"PAYLOAD","RA_OF_ASC_NODE":"282.2012","TLE_LINE1":"1 51784U 22017S   22101.91667824 -.00719258  00000-0 -14673-1 0  9992","REF_FRAME":"TEME","SITE":"AFWTR","CENTER_NAME":"EARTH","GP_ID":"201019785","DECAY_DATE":null,"FILE":"3397723","INCLINATION":"53.2175","MEAN_ANOMALY":"261.2975","COUNTRY_CODE":"US","SEMIMAJOR_AXIS":"6800.993","PERIAPSIS":"421.913"},{"BSTAR":"-0.00001747300000","OBJECT_TYPE":"PAYLOAD","EPHEMERIS_TYPE":"0","MEAN_MOTION_DDOT":"0.0000000000000","NORAD_CAT_ID":"51785","ELEMENT_SET_NO":"999","TIME_SYSTEM":"UTC","RA_OF_ASC_NODE":"279.5530","GP_ID":"201020302","CENTER_NAME":"EARTH","TLE_LINE1":"1 51785U 22017T   22101.91667824 -.00003072  00000-0 -17473-4 0  9997","SITE":"AFWTR","REF_FRAME":"TEME","PERIAPSIS":"348.937","SEMIMAJOR_AXIS":"6727.877","FILE":"3397723","DECAY_DATE":null,"COUNTRY_CODE":"US","INCLINATION":"53.2133","MEAN_ANOMALY":"164.1512","REV_AT_EPOCH":"369","OBJECT_NAME":"STARLINK-3646","RCS_SIZE":"LARGE","LAUNCH_DATE":"2022-02-25","MEAN_MOTION_DOT":"-0.00003072","CLASSIFICATION_TYPE":"U","EPOCH":"2022-04-11T22:00:00.999936","APOAPSIS":"350.547","ECCENTRICITY":"0.00011960","TLE_LINE2":"2 51785  53.2133 279.5530 0001196  50.7918 164.1512 15.73206342  3694","ARG_OF_PERICENTER":"50.7918","OBJECT_ID":"2022-017T","PERIOD":"91.533","MEAN_ELEMENT_THEORY":"SGP4","MEAN_MOTION":"15.73206342"},{"SITE":"AFWTR","REF_FRAME":"TEME","TLE_LINE1":"1 51786U 22017U   22101.91667824 -.00719509  00000-0 -14548-1 0  9994","CENTER_NAME":"EARTH","GP_ID":"201020205","COUNTRY_CODE":"US","INCLINATION":"53.2175","MEAN_ANOMALY":"260.6176","FILE":"3397723","DECAY_DATE":null,"SEMIMAJOR_AXIS":"6800.244","PERIAPSIS":"421.293","MEAN_MOTION_DDOT":"0.0000000000000","NORAD_CAT_ID":"51786","TIME_SYSTEM":"UTC","ELEMENT_SET_NO":"999","OBJECT_TYPE":"PAYLOAD","EPHEMERIS_TYPE":"0","BSTAR":"-0.01454800000000","RA_OF_ASC_NODE":"282.2001","EPOCH":"2022-04-11T22:00:00.999936","MEAN_MOTION":"15.48160618","OBJECT_ID":"2022-017U","ARG_OF_PERICENTER":"69.7276","PERIOD":"93.014","MEAN_ELEMENT_THEORY":"SGP4","TLE_LINE2":"2 51786  53.2175 282.2001 0001200  69.7276 260.6176 15.48160618  3671","APOAPSIS":"422.925","ECCENTRICITY":"0.00012000","LAUNCH_DATE":"2022-02-25","OBJECT_NAME":"STARLINK-3638","RCS_SIZE":"LARGE","REV_AT_EPOCH":"367","MEAN_MOTION_DOT":"-0.00719509","CLASSIFICATION_TYPE":"U"},{"OBJECT_NAME":"STARLINK-3619","RCS_SIZE":"LARGE","REV_AT_EPOCH":"367","LAUNCH_DATE":"2022-02-25","MEAN_MOTION_DOT":"-0.00718890","CLASSIFICATION_TYPE":"U","EPOCH":"2022-04-11T22:00:00.999936","TLE_LINE2":"2 51787  53.2175 282.2019 0001657  40.6471 256.7003 15.47649077  3677","APOAPSIS":"424.734","ECCENTRICITY":"0.00016570","MEAN_MOTION":"15.47649077","OBJECT_ID":"2022-017V","ARG_OF_PERICENTER":"40.6471","PERIOD":"93.044","MEAN_ELEMENT_THEORY":"SGP4","OBJECT_TYPE":"PAYLOAD","EPHEMERIS_TYPE":"0","BSTAR":"-0.01479600000000","MEAN_MOTION_DDOT":"0.0000000000000","NORAD_CAT_ID":"51787","ELEMENT_SET_NO":"999","TIME_SYSTEM":"UTC","RA_OF_ASC_NODE":"282.2019","GP_ID":"201020401","CENTER_NAME":"EARTH","SITE":"AFWTR","REF_FRAME":"TEME","TLE_LINE1":"1 51787U 22017V   22101.91667824 -.00718890  00000-0 -14796-1 0  9992","PERIAPSIS":"422.480","SEMIMAJOR_AXIS":"6801.742","COUNTRY_CODE":"US","MEAN_ANOMALY":"256.7003","INCLINATION":"53.2175","FILE":"3397723","DECAY_DATE":null},{"MEAN_MOTION":"15.48544180","OBJECT_ID":"2022-017W","ARG_OF_PERICENTER":"76.0008","MEAN_ELEMENT_THEORY":"SGP4","PERIOD":"92.991","TLE_LINE2":"2 51788  53.2175 282.1978 0001113  76.0008 278.6896 15.48544180  3670","APOAPSIS":"421.743","ECCENTRICITY":"0.00011130","EPOCH":"2022-04-11T22:00:00.999936","MEAN_MOTION_DOT":"-0.00719773","CLASSIFICATION_TYPE":"U","LAUNCH_DATE":"2022-02-25","OBJECT_NAME":"STARLINK-3641","RCS_SIZE":"MEDIUM","REV_AT_EPOCH":"367","COUNTRY_CODE":"US","INCLINATION":"53.2175","MEAN_ANOMALY":"278.6896","FILE":"3397723","DECAY_DATE":null,"SEMIMAJOR_AXIS":"6799.121","PERIAPSIS":"420.229","SITE":"AFWTR","REF_FRAME":"TEME","TLE_LINE1":"1 51788U 22017W   22101.91667824 -.00719773  00000-0 -14359-1 0  9999","CENTER_NAME":"EARTH","GP_ID":"201020108","RA_OF_ASC_NODE":"282.1978","MEAN_MOTION_DDOT":"0.0000000000000","NORAD_CAT_ID":"51788","TIME_SYSTEM":"UTC","ELEMENT_SET_NO":"999","OBJECT_TYPE":"PAYLOAD","EPHEMERIS_TYPE":"0","BSTAR":"-0.01435900000000"},{"RA_OF_ASC_NODE":"282.2006","BSTAR":"-0.01460800000000","OBJECT_TYPE":"PAYLOAD","EPHEMERIS_TYPE":"0","NORAD_CAT_ID":"51789","MEAN_MOTION_DDOT":"0.0000000000000","ELEMENT_SET_NO":"999","TIME_SYSTEM":"UTC","PERIAPSIS":"421.652","SEMIMAJOR_AXIS":"6800.619","FILE":"3397723","DECAY_DATE":null,"COUNTRY_CODE":"US","MEAN_ANOMALY":"254.0501","INCLINATION":"53.2175","CENTER_NAME":"EARTH","GP_ID":"201019980","TLE_LINE1":"1 51789U 22017X   22101.91667824 -.00719262  00000-0 -14608-1 0  9990","SITE":"AFWTR","REF_FRAME":"TEME","MEAN_MOTION_DOT":"-0.00719262","CLASSIFICATION_TYPE":"U","REV_AT_EPOCH":"367","OBJECT_NAME":"STARLINK-3639","RCS_SIZE":"LARGE","LAUNCH_DATE":"2022-02-25","APOAPSIS":"423.315","ECCENTRICITY":"0.00012230","TLE_LINE2":"2 51789  53.2175 282.2006 0001223  68.1033 254.0501 15.48032709  3676","ARG_OF_PERICENTER":"68.1033","OBJECT_ID":"2022-017X","PERIOD":"93.021","MEAN_ELEMENT_THEORY":"SGP4","MEAN_MOTION":"15.48032709","EPOCH":"2022-04-11T22:00:00.999936"},{"MEAN_MOTION_DDOT":"0.0000000000000","NORAD_CAT_ID":"51790","TIME_SYSTEM":"UTC","ELEMENT_SET_NO":"999","BSTAR":"-0.01429600000000","OBJECT_TYPE":"PAYLOAD","EPHEMERIS_TYPE":"0","RA_OF_ASC_NODE":"282.1969","TLE_LINE1":"1 51790U 22017Y   22101.91667824 -.00719846  00000-0 -14296-1 0  9993","SITE":"AFWTR","REF_FRAME":"TEME","GP_ID":"201019883","CENTER_NAME":"EARTH","FILE":"3397723","DECAY_DATE":null,"COUNTRY_CODE":"US","INCLINATION":"53.2175","MEAN_ANOMALY":"291.0662","SEMIMAJOR_AXIS":"6798.747","PERIAPSIS":"419.843","LAUNCH_DATE":"2022-02-25","REV_AT_EPOCH":"367","OBJECT_NAME":"STARLINK-3631","RCS_SIZE":"LARGE","MEAN_MOTION_DOT":"-0.00719846","CLASSIFICATION_TYPE":"U","EPOCH":"2022-04-11T22:00:00.999936","ARG_OF_PERICENTER":"71.6625","OBJECT_ID":"2022-017Y","MEAN_ELEMENT_THEORY":"SGP4","PERIOD":"92.983","MEAN_MOTION":"15.48671943","APOAPSIS":"421.381","ECCENTRICITY":"0.00011310","TLE_LINE2":"2 51790  53.2175 282.1969 0001131  71.6625 291.0662 15.48671943  3677"},{"INCLINATION":"53.2175","MEAN_ANOMALY":"277.7003","COUNTRY_CODE":"US","DECAY_DATE":null,"FILE":"3397723","SEMIMAJOR_AXIS":"6799.869","PERIAPSIS":"420.887","REF_FRAME":"TEME","SITE":"AFWTR","TLE_LINE1":"1 51791U 22017Z   22101.91667824 -.00719804  00000-0 -14489-1 0  9992","GP_ID":"201020466","CENTER_NAME":"EARTH","RA_OF_ASC_NODE":"282.1994","TIME_SYSTEM":"UTC","ELEMENT_SET_NO":"999","NORAD_CAT_ID":"51791","MEAN_MOTION_DDOT":"0.0000000000000","EPHEMERIS_TYPE":"0","OBJECT_TYPE":"PAYLOAD","BSTAR":"-0.01448900000000","MEAN_MOTION":"15.48288566","MEAN_ELEMENT_THEORY":"SGP4","PERIOD":"93.006","OBJECT_ID":"2022-017Z","ARG_OF_PERICENTER":"60.7983","TLE_LINE2":"2 51791  53.2175 282.1994 0001246  60.7983 277.7003 15.48288566  3674","ECCENTRICITY":"0.00012460","APOAPSIS":"422.582","EPOCH":"2022-04-11T22:00:00.999936","CLASSIFICATION_TYPE":"U","MEAN_MOTION_DOT":"-0.00719804","LAUNCH_DATE":"2022-02-25","RCS_SIZE":"LARGE","OBJECT_NAME":"STARLINK-3602","REV_AT_EPOCH":"367"}];
